[{"OBJECT_NAME":"STARLINK-36507","OBJECT_ID":"2026-005F","EPOCH":"2026-03-09T11:49:36.683616","MEAN_MOTION":15.27593745,"ECCENTRICITY":0.00021331,"INCLINATION":43.0013,"RA_OF_ASC_NODE":239.3292,"ARG_OF_PERICENTER":265.9144,"MEAN_ANOMALY":94.1464,"EPHEMERIS_TYPE":0,"CLASSIFICATION_TYPE":"U","NORAD_CAT_ID":67409,"ELEMENT_SET_NO":999,"REV_AT_EPOCH":866,"BSTAR":0.00093302103,"MEAN_MOTION_DOT":0.00025513,"MEAN_MOTION_DDOT":0},{"OBJECT_NAME":"CZ-6A DEB","OBJECT_ID":"2022-151CC","EPOCH":"2026-03-09T19:21:24.185952","MEAN_MOTION":15.21292269,"ECCENTRICITY":0.00294338,"INCLINATION":98.6347,"RA_OF_ASC_NODE":160.1892,"ARG_OF_PERICENTER":145.6687,"MEAN_ANOMALY":214.6455,"EPHEMERIS_TYPE":0,"CLASSIFICATION_TYPE":"U","NORAD_CAT_ID":54333,"ELEMENT_SET_NO":999,"REV_AT_EPOCH":17712,"BSTAR":0.0073643753,"MEAN_MOTION_DOT":0.00170206,"MEAN_MOTION_DDOT":0}]
